[{"OBJECT_NAME":"STARLINK-3832","OBJECT_ID":"2022-052BA","EPOCH":"2026-03-09T17:27:42.180192","MEAN_MOTION":15.08839779,"ECCENTRICITY":0.00014736,"INCLINATION":53.2169,"RA_OF_ASC_NODE":258.9908,"ARG_OF_PERICENTER":82.0163,"MEAN_ANOMALY":278.0997,"EPHEMERIS_TYPE":0,"CLASSIFICATION_TYPE":"U","NORAD_CAT_ID":52646,"ELEMENT_SET_NO":999,"REV_AT_EPOCH":21114,"BSTAR":0.00013744745,"MEAN_MOTION_DOT":1.9e-5,"MEAN_MOTION_DDOT":0},{"OBJECT_NAME":"FENGYUN 1C DEB","OBJECT_ID":"1999-025BFB","EPOCH":"2026-03-07T22:39:13.230432","MEAN_MOTION":14.80895829,"ECCENTRICITY":0.01343541,"INCLINATION":99.2432,"RA_OF_ASC_NODE":124.2719,"ARG_OF_PERICENTER":346.3958,"MEAN_ANOMALY":13.3642,"EPHEMERIS_TYPE":0,"CLASSIFICATION_TYPE":"U","NORAD_CAT_ID":31057,"ELEMENT_SET_NO":999,"REV_AT_EPOCH":63213,"BSTAR":0.0011769904,"MEAN_MOTION_DOT":0.0001056,"MEAN_MOTION_DDOT":0}]
